IRIDIUM 166             
1 43570U 18061B   24354.89127027  .00000590  00000+0  20371-3 0  9998
2 43570  86.3962 284.1765 0001857  88.2900 271.8508 14.34224404335387
IRIDIUM 158             
1 43571U 18061C   24354.58049115  .00000082  00000+0  22138-4 0  9996
2 43571  86.3961 284.3161 0002109  77.4323 282.7108 14.34217580335305
IRIDIUM 165             
1 43572U 18061D   24354.53609376  .00000059  00000+0  13928-4 0  9994
2 43572  86.3965 284.3707 0002220  87.0601 273.0849 14.34217700335327
IRIDIUM 155             
1 43573U 18061E   24354.91663840  .00000517  00000+0  17753-3 0  9991
2 43573  86.3960 284.1075 0001837  80.5042 279.6361 14.34223206335351
IRIDIUM 154             
1 43574U 18061F   24354.54876742  .00000592  00000+0  20430-3 0  9997
2 43574  86.3964 284.3680 0002237  85.5350 274.6101 14.34221745335344
IRIDIUM 163             
1 43575U 18061G   24354.52975021  .00000074  00000+0  19451-4 0  9993
2 43575  86.3963 284.3086 0002066  80.3229 279.8200 14.34218263335317
IRIDIUM 156             
1 43576U 18061H   24354.92299821  .00000572  00000+0  19709-3 0  9993
2 43576  86.3962 284.1509 0001832  84.4885 275.6520 14.34216275335352
IRIDIUM 164             
1 43577U 18061J   24354.76442136  .00000584  00000+0  20147-3 0  9996
2 43577  86.3965 284.2489 0002243  90.3802 269.7651 14.34213590335385
